[{"OBJECT_NAME":"STARLINK-32928","OBJECT_ID":"2025-075S","EPOCH":"2026-03-23T18:30:19.120032","MEAN_MOTION":15.27630301,"ECCENTRICITY":0.00011982,"INCLINATION":42.999,"RA_OF_ASC_NODE":190.8761,"ARG_OF_PERICENTER":300.7277,"MEAN_ANOMALY":59.3456,"EPHEMERIS_TYPE":0,"CLASSIFICATION_TYPE":"U","NORAD_CAT_ID":63564,"ELEMENT_SET_NO":999,"REV_AT_EPOCH":5409,"BSTAR":0.0010585851,"MEAN_MOTION_DOT":0.00029027,"MEAN_MOTION_DDOT":0},{"OBJECT_NAME":"STARLINK-32687","OBJECT_ID":"2025-075T","EPOCH":"2026-03-23T15:59:01.044384","MEAN_MOTION":15.27625066,"ECCENTRICITY":0.00014975,"INCLINATION":43.0005,"RA_OF_ASC_NODE":191.7817,"ARG_OF_PERICENTER":303.7739,"MEAN_ANOMALY":56.297,"EPHEMERIS_TYPE":0,"CLASSIFICATION_TYPE":"U","NORAD_CAT_ID":63565,"ELEMENT_SET_NO":999,"REV_AT_EPOCH":5407,"BSTAR":0.001100848,"MEAN_MOTION_DOT":0.00030197,"MEAN_MOTION_DDOT":0},{"OBJECT_NAME":"STARLINK-32950","OBJECT_ID":"2025-075U","EPOCH":"2026-03-23T16:48:45.406656","MEAN_MOTION":15.27582608,"ECCENTRICITY":0.00018039,"INCLINATION":43.0044,"RA_OF_ASC_NODE":191.1458,"ARG_OF_PERICENTER":250.297,"MEAN_ANOMALY":109.7688,"EPHEMERIS_TYPE":0,"CLASSIFICATION_TYPE":"U","NORAD_CAT_ID":63566,"ELEMENT_SET_NO":999,"REV_AT_EPOCH":5407,"BSTAR":0.0006410349,"MEAN_MOTION_DOT":0.00017421,"MEAN_MOTION_DDOT":0},{"OBJECT_NAME":"STARLINK-32954","OBJECT_ID":"2025-075V","EPOCH":"2026-03-23T17:07:15.201696","MEAN_MOTION":15.2760827,"ECCENTRICITY":0.00014157,"INCLINATION":42.9976,"RA_OF_ASC_NODE":191.2761,"ARG_OF_PERICENTER":252.9944,"MEAN_ANOMALY":107.0753,"EPHEMERIS_TYPE":0,"CLASSIFICATION_TYPE":"U","NORAD_CAT_ID":63567,"ELEMENT_SET_NO":999,"REV_AT_EPOCH":5407,"BSTAR":0.00062726643,"MEAN_MOTION_DOT":0.00017054,"MEAN_MOTION_DDOT":0},{"OBJECT_NAME":"STARLINK-32940","OBJECT_ID":"2025-075W","EPOCH":"2026-03-23T17:14:39.355584","MEAN_MOTION":15.27620947,"ECCENTRICITY":0.00015617,"INCLINATION":42.9992,"RA_OF_ASC_NODE":191.3125,"ARG_OF_PERICENTER":254.6515,"MEAN_ANOMALY":105.4165,"EPHEMERIS_TYPE":0,"CLASSIFICATION_TYPE":"U","NORAD_CAT_ID":63568,"ELEMENT_SET_NO":999,"REV_AT_EPOCH":5407,"BSTAR":0.00090686967,"MEAN_MOTION_DOT":0.00024808,"MEAN_MOTION_DDOT":0},{"OBJECT_NAME":"STARLINK-32959","OBJECT_ID":"2025-076A","EPOCH":"2026-03-23T19:16:06.520800","MEAN_MOTION":15.27594634,"ECCENTRICITY":0.00014642,"INCLINATION":42.9992,"RA_OF_ASC_NODE":245.9707,"ARG_OF_PERICENTER":260.6207,"MEAN_ANOMALY":99.4479,"EPHEMERIS_TYPE":0,"CLASSIFICATION_TYPE":"U","NORAD_CAT_ID":63569,"ELEMENT_SET_NO":999,"REV_AT_EPOCH":5394,"BSTAR":0.00059510531,"MEAN_MOTION_DOT":0.00016157,"MEAN_MOTION_DDOT":0},{"OBJECT_NAME":"STARLINK-32956","OBJECT_ID":"2025-076B","EPOCH":"2026-03-23T19:27:00.144576","MEAN_MOTION":15.27585823,"ECCENTRICITY":0.00011976,"INCLINATION":42.9991,"RA_OF_ASC_NODE":245.1596,"ARG_OF_PERICENTER":264.4166,"MEAN_ANOMALY":95.655,"EPHEMERIS_TYPE":0,"CLASSIFICATION_TYPE":"U","NORAD_CAT_ID":63570,"ELEMENT_SET_NO":999,"REV_AT_EPOCH":5394,"BSTAR":0.00063579367,"MEAN_MOTION_DOT":0.00017278,"MEAN_MOTION_DDOT":0},{"OBJECT_NAME":"STARLINK-33722","OBJECT_ID":"2025-076C","EPOCH":"2026-03-23T10:23:05.417376","MEAN_MOTION":15.27580153,"ECCENTRICITY":0.00014574,"INCLINATION":43.003,"RA_OF_ASC_NODE":243.9657,"ARG_OF_PERICENTER":265.6811,"MEAN_ANOMALY":94.3874,"EPHEMERIS_TYPE":0,"CLASSIFICATION_TYPE":"U","NORAD_CAT_ID":63571,"ELEMENT_SET_NO":999,"REV_AT_EPOCH":5392,"BSTAR":0.00074555694,"MEAN_MOTION_DOT":0.00020311,"MEAN_MOTION_DDOT":0},{"OBJECT_NAME":"STARLINK-33739","OBJECT_ID":"2025-076D","EPOCH":"2026-03-23T19:03:49.814784","MEAN_MOTION":15.27597357,"ECCENTRICITY":0.00015659,"INCLINATION":42.9985,"RA_OF_ASC_NODE":242.3787,"ARG_OF_PERICENTER":259.1201,"MEAN_ANOMALY":100.9475,"EPHEMERIS_TYPE":0,"CLASSIFICATION_TYPE":"U","NORAD_CAT_ID":63572,"ELEMENT_SET_NO":999,"REV_AT_EPOCH":5398,"BSTAR":0.00064584161,"MEAN_MOTION_DOT":0.00017562,"MEAN_MOTION_DDOT":0},{"OBJECT_NAME":"STARLINK-33683","OBJECT_ID":"2025-076E","EPOCH":"2026-03-23T12:45:21.425472","MEAN_MOTION":15.27593185,"ECCENTRICITY":0.00015177,"INCLINATION":42.998,"RA_OF_ASC_NODE":243.8424,"ARG_OF_PERICENTER":258.8227,"MEAN_ANOMALY":101.2454,"EPHEMERIS_TYPE":0,"CLASSIFICATION_TYPE":"U","NORAD_CAT_ID":63573,"ELEMENT_SET_NO":999,"REV_AT_EPOCH":5394,"BSTAR":0.00090271948,"MEAN_MOTION_DOT":0.00024672,"MEAN_MOTION_DDOT":0},{"OBJECT_NAME":"STARLINK-33732","OBJECT_ID":"2025-076G","EPOCH":"2026-03-23T18:43:28.934400","MEAN_MOTION":15.2759663,"ECCENTRICITY":0.00016062,"INCLINATION":43.0018,"RA_OF_ASC_NODE":242.2766,"ARG_OF_PERICENTER":286.4318,"MEAN_ANOMALY":73.6357,"EPHEMERIS_TYPE":0,"CLASSIFICATION_TYPE":"U","NORAD_CAT_ID":63575,"ELEMENT_SET_NO":999,"REV_AT_EPOCH":5398,"BSTAR":0.00038003774,"MEAN_MOTION_DOT":0.00010215,"MEAN_MOTION_DDOT":0},{"OBJECT_NAME":"STARLINK-33800","OBJECT_ID":"2025-076H","EPOCH":"2026-03-23T11:49:51.906432","MEAN_MOTION":15.27574778,"ECCENTRICITY":0.00014131,"INCLINATION":43.0028,"RA_OF_ASC_NODE":243.5514,"ARG_OF_PERICENTER":287.9161,"MEAN_ANOMALY":72.1537,"EPHEMERIS_TYPE":0,"CLASSIFICATION_TYPE":"U","NORAD_CAT_ID":63576,"ELEMENT_SET_NO":999,"REV_AT_EPOCH":5394,"BSTAR":0.00069054278,"MEAN_MOTION_DOT":0.00018785,"MEAN_MOTION_DDOT":0},{"OBJECT_NAME":"STARLINK-33632","OBJECT_ID":"2025-076J","EPOCH":"2026-03-23T17:24:07.440768","MEAN_MOTION":15.27595631,"ECCENTRICITY":0.00015837,"INCLINATION":42.9995,"RA_OF_ASC_NODE":242.7164,"ARG_OF_PERICENTER":272.6217,"MEAN_ANOMALY":87.4453,"EPHEMERIS_TYPE":0,"CLASSIFICATION_TYPE":"U","NORAD_CAT_ID":63577,"ELEMENT_SET_NO":999,"REV_AT_EPOCH":5397,"BSTAR":0.00064671552,"MEAN_MOTION_DOT":0.00017585,"MEAN_MOTION_DDOT":0},{"OBJECT_NAME":"STARLINK-33719","OBJECT_ID":"2025-076K","EPOCH":"2026-03-23T18:19:26.411232","MEAN_MOTION":15.27590805,"ECCENTRICITY":0.00015386,"INCLINATION":43.0022,"RA_OF_ASC_NODE":242.1483,"ARG_OF_PERICENTER":284.8178,"MEAN_ANOMALY":75.2503,"EPHEMERIS_TYPE":0,"CLASSIFICATION_TYPE":"U","NORAD_CAT_ID":63578,"ELEMENT_SET_NO":999,"REV_AT_EPOCH":5398,"BSTAR":0.00073019094,"MEAN_MOTION_DOT":0.00019892,"MEAN_MOTION_DDOT":0},{"OBJECT_NAME":"STARLINK-33755","OBJECT_ID":"2025-076L","EPOCH":"2026-03-23T12:04:37.702560","MEAN_MOTION":15.27597509,"ECCENTRICITY":0.00019353,"INCLINATION":43.0049,"RA_OF_ASC_NODE":243.5502,"ARG_OF_PERICENTER":259.6669,"MEAN_ANOMALY":100.3965,"EPHEMERIS_TYPE":0,"CLASSIFICATION_TYPE":"U","NORAD_CAT_ID":63579,"ELEMENT_SET_NO":999,"REV_AT_EPOCH":5394,"BSTAR":0.0010522932,"MEAN_MOTION_DOT":0.00028824,"MEAN_MOTION_DDOT":0},{"OBJECT_NAME":"STARLINK-33752","OBJECT_ID":"2025-076M","EPOCH":"2026-03-23T21:48:05.597568","MEAN_MOTION":15.27611133,"ECCENTRICITY":0.00015662,"INCLINATION":43.0004,"RA_OF_ASC_NODE":241.5122,"ARG_OF_PERICENTER":263.7704,"MEAN_ANOMALY":96.2969,"EPHEMERIS_TYPE":0,"CLASSIFICATION_TYPE":"U","NORAD_CAT_ID":63580,"ELEMENT_SET_NO":999,"REV_AT_EPOCH":5400,"BSTAR":0.00086562589,"MEAN_MOTION_DOT":0.00023657,"MEAN_MOTION_DDOT":0}]
