STARLINK-32928          
1 63564U 25075S   26082.77105463  .00029027  00000+0  10586-2 0  9995
2 63564  42.9990 190.8761 0001198 300.7277  59.3456 15.27630301 54094
STARLINK-32687          
1 63565U 25075T   26082.66598431  .00030197  00000+0  11008-2 0  9995
2 63565  43.0005 191.7817 0001497 303.7739  56.2970 15.27625066 54071
STARLINK-32950          
1 63566U 25075U   26082.70052554  .00017421  00000+0  64103-3 0  9992
2 63566  43.0044 191.1458 0001803 250.2970 109.7688 15.27582608 54078
STARLINK-32954          
1 63567U 25075V   26082.71337039  .00017054  00000+0  62727-3 0  9990
2 63567  42.9976 191.2761 0001415 252.9944 107.0753 15.27608270 54076
STARLINK-32940          
1 63568U 25075W   26082.71851106  .00024808  00000+0  90687-3 0  9998
2 63568  42.9992 191.3125 0001561 254.6515 105.4165 15.27620947 54079
STARLINK-32959          
1 63569U 25076A   26082.80285325  .00016157  00000+0  59511-3 0  9993
2 63569  42.9992 245.9707 0001464 260.6207  99.4479 15.27594634 53947
STARLINK-32956          
1 63570U 25076B   26082.81041834  .00017278  00000+0  63579-3 0  9995
2 63570  42.9991 245.1596 0001197 264.4166  95.6550 15.27585823 53943
STARLINK-33722          
1 63571U 25076C   26082.43270159  .00020311  00000+0  74556-3 0  9997
2 63571  43.0030 243.9657 0001457 265.6811  94.3874 15.27580153 53927
STARLINK-33739          
1 63572U 25076D   26082.79432656  .00017562  00000+0  64584-3 0  9993
2 63572  42.9985 242.3787 0001565 259.1201 100.9475 15.27597357 53984
STARLINK-33683          
1 63573U 25076E   26082.53149798  .00024672  00000+0  90272-3 0  9991
2 63573  42.9980 243.8424 0001517 258.8227 101.2454 15.27593185 53947
STARLINK-33732          
1 63575U 25076G   26082.78019600  .00010215  00000+0  38004-3 0  9991
2 63575  43.0018 242.2766 0001606 286.4318  73.6357 15.27596630 53988
STARLINK-33800          
1 63576U 25076H   26082.49296188  .00018785  00000+0  69054-3 0  9997
2 63576  43.0028 243.5514 0001413 287.9161  72.1537 15.27574778 53942
STARLINK-33632          
1 63577U 25076J   26082.72508612  .00017585  00000+0  64672-3 0  9990
2 63577  42.9995 242.7164 0001583 272.6217  87.4453 15.27595631 53977
STARLINK-33719          
1 63578U 25076K   26082.76350013  .00019892  00000+0  73019-3 0  9993
2 63578  43.0022 242.1483 0001538 284.8178  75.2503 15.27590805 53980
STARLINK-33755          
1 63579U 25076L   26082.50321415  .00028824  00000+0  10523-2 0  9995
2 63579  43.0049 243.5502 0001935 259.6669 100.3965 15.27597509 53949
STARLINK-33752          
1 63580U 25076M   26082.90839812  .00023657  00000+0  86563-3 0  9993
2 63580  43.0004 241.5122 0001566 263.7704  96.2969 15.27611133 54009
